INTELSAT 21 (IS-21)     
1 38749U 12045A   26167.53082604 -.00000286  00000+0  00000+0 0  9998
2 38749   0.0077 310.7915 0001322 155.0226 292.0799  1.00270345 50513
ASTRA 2F                
1 38778U 12051A   26167.54781278  .00000148  00000+0  00000+0 0  9997
2 38778   0.0644 257.4859 0001459 283.4524 309.2675  1.00269484 41131
GSAT-10                 
1 38779U 12051B   26167.48742797 -.00000166  00000+0  00000+0 0  9995
2 38779   0.0823 262.7408 0007778 184.4464  76.0501  1.00269915 50094
INTELSAT 23 (IS-23)     
1 38867U 12057A   26167.48447596 -.00000286  00000+0  00000+0 0  9991
2 38867   0.0177 305.1566 0000206  51.2003  29.8210  1.00268351 49948
BEIDOU-2 G6             
1 38953U 12059A   26167.63024821 -.00000180  00000+0  00000+0 0  9991
2 38953   4.4196  73.5252 0009578 324.1350 178.1629  1.00272058 49906
LUCH-5B                 
1 38977U 12061A   26166.96871394 -.00000144  00000+0  00000+0 0  9990
2 38977  10.4794  49.8909 0002521 151.7333  35.0817  1.00272153 49595
YAMAL 300K              
1 38978U 12061B   26167.57848058  .00000000  00000+0  00000+0 0  9990
2 38978   0.0219 337.3120 0001400 272.1668  46.5718  1.00268409 49627
STAR ONE C3             
1 38991U 12062A   26167.52738840 -.00000251  00000+0  00000+0 0  9997
2 38991   0.0151 315.3164 0002156 143.3654 280.9889  1.00270938 49751
EUTELSAT 21B            
1 38992U 12062B   26167.54659944  .00000128  00000+0  00000+0 0  9999
2 38992   0.0666 343.4115 0003129  91.6376  48.1523  1.00270591 49820
ECHOSTAR 16             
1 39008U 12065A   26167.34072493 -.00000283  00000+0  00000+0 0  9990
2 39008   0.0192  34.0681 0002069  49.1511 242.5510  1.00270141 49631
ZHONGXING-12            
1 39017U 12067A   26167.63094155 -.00000209  00000+0  00000+0 0  9991
2 39017   0.0381  87.1368 0002756 349.6745 142.7178  1.00271880 49500
EUTELSAT 70B            
1 39020U 12069A   26167.55621948 -.00000045  00000+0  00000+0 0  9992
2 39020   0.0645  14.3198 0003940  63.4017  97.8265  1.00271569 49500
YAMAL 402               
1 39022U 12070A   26167.62441358  .00000083  00000+0  00000+0 0  9990
2 39022   1.2642  84.1648 0003626   0.9409  99.4673  1.00271107 49395
SKYNET 5D               
1 39034U 12075A   26167.55275280  .00000098  00000+0  00000+0 0  9995
2 39034   0.0669 348.9681 0003448 104.5428  63.0718  1.00269999 49153
MEXSAT 3                
1 39035U 12075B   26167.59087397 -.00000027  00000+0  00000+0 0  9993
2 39035   0.0207  66.7669 0001144   8.3819 287.6123  1.00268426  7049
TDRS 11                 
1 39070U 13004A   26167.50771498  .00000075  00000+0  00000+0 0  9990
2 39070   3.5197  31.2495 0005486  20.3019 221.5915  1.00269249 46680
AMAZONAS 3              
1 39078U 13006A   26167.53021937 -.00000284  00000+0  00000+0 0  9992
2 39078   0.0400 209.9988 0001839 281.1290 263.5487  1.00272537 44901
AZERSPACE 1             
1 39079U 13006B   26167.55136612  .00000132  00000+0  00000+0 0  9993
2 39079   0.0163  12.8263 0001209 102.3268  34.1392  1.00269651 48808
SBIRS GEO-2 (USA 241)   
1 39120U 13011A   26167.53238605 -.00000291  00000+0  00000+0 0  9996
2 39120   4.4880  52.5086 0002146  25.8111 328.3373  1.00271508 48520
EUTELSAT 117 WEST A     
1 39122U 13012A   26167.59044064 -.00000015  00000+0  00000+0 0  9993
2 39122   0.0147  11.0422 0002637  73.9066 275.6588  1.00271087 48425
ANIK G1                 
1 39127U 13014A   26167.59234731 -.00000076  00000+0  00000+0 0  9999
2 39127   0.0172  13.2471 0001490  64.2325 293.3061  1.00270711 48249
ZHONGXING-11            
1 39157U 13020A   26167.41907566 -.00000291  00000+0  00000+0 0  9992
2 39157   0.0552  63.7791 0001978  14.4352  75.2478  1.00269394 47891
EUTELSAT 7B             
1 39163U 13022A   26167.11589705  .00000048  00000+0  00000+0 0  9998
2 39163   0.0651 347.8161 0004726  47.4091 277.8986  1.00273135 47932
WGS F5 (USA 243)        
1 39168U 13024A   26167.32830765 -.00000285  00000+0  00000+0 0  9997
2 39168   0.0162 329.4365 0000318 320.0563  40.7855  1.00270693 47166
SES-6                   
1 39172U 13026A   26167.53385939 -.00000263  00000+0  00000+0 0  9991
2 39172   0.0194  14.6129 0002483  86.3512 315.5127  1.00269469 47713
IRNSS-1A                
1 39199U 13034A   26160.59779131  .00000070  00000+0  00000+0 0  9994
2 39199  35.7049  63.9797 0017411 184.2474 279.8453  1.00272948 47299
MUOS-2                  
1 39206U 13036A   26167.50506579 -.00000017  00000+0  00000+0 0  9999
2 39206   4.9938  45.5307 0050984 177.5124  35.5103  1.00273074 47183
ALPHASAT                
1 39215U 13038A   26167.11945041  .00000132  00000+0  00000+0 0  9996
2 39215   2.9985   1.3330 0001775  89.1434 241.7746  1.00275002 44000
INSAT-3D                
1 39216U 13038B   26167.64389184 -.00000342  00000+0  00000+0 0  9999
2 39216   1.9252  82.5469 0000561 310.9032 232.7718  1.00269377 47079
WGS F6 (USA 244)        
1 39222U 13041A   26167.58680061  .00000087  00000+0  00000+0 0  9996
2 39222   0.0171   3.6031 0000175 306.5626  30.7405  1.00271243 46057
ES'HAIL 1               
1 39233U 13044A   26167.54729278  .00000142  00000+0  00000+0 0  9993
2 39233   0.0482 344.7499 0002103  96.3350  46.2480  1.00273367 46629
GSAT-7                  
1 39234U 13044B   26167.55691281 -.00000078  00000+0  00000+0 0  9996
2 39234   0.0827  94.3413 0003164 190.2950 254.6426  1.00270365 45253
