OBJECT_NAME,OBJECT_ID,EPOCH,MEAN_MOTION,ECCENTRICITY,INCLINATION,RA_OF_ASC_NODE,ARG_OF_PERICENTER,MEAN_ANOMALY,EPHEMERIS_TYPE,CLASSIFICATION_TYPE,NORAD_CAT_ID,ELEMENT_SET_NO,REV_AT_EPOCH,BSTAR,MEAN_MOTION_DOT,MEAN_MOTION_DDOT
INTELSAT 21 (IS-21),2012-045A,2026-06-16T12:44:23.369856,1.00270345,.00013223,0.0077,310.7915,155.0226,292.0799,0,U,38749,999,5051,0,-.286E-5,0
ASTRA 2F,2012-051A,2026-06-16T13:08:51.024192,1.00269484,.00014592,0.0644,257.4859,283.4524,309.2675,0,U,38778,999,4113,0,.148E-5,0
GSAT-10,2012-051B,2026-06-16T11:41:53.776608,1.00269915,.00077781,0.0823,262.7408,184.4464,76.0501,0,U,38779,999,5009,0,-.166E-5,0
INTELSAT 23 (IS-23),2012-057A,2026-06-16T11:37:38.722944,1.00268351,.00002061,0.0177,305.1566,51.2003,29.8210,0,U,38867,999,4994,0,-.286E-5,0
BEIDOU-2 G6,2012-059A,2026-06-16T15:07:33.445344,1.00272058,.00095781,4.4196,73.5252,324.1350,178.1629,0,U,38953,999,4990,0,-.18E-5,0
LUCH-5B,2012-061A,2026-06-15T23:14:56.884416,1.00272153,.00025217,10.4794,49.8909,151.7333,35.0817,0,U,38977,999,4959,0,-.144E-5,0
YAMAL 300K,2012-061B,2026-06-16T13:53:00.722112,1.00268409,.00014009,0.0219,337.3120,272.1668,46.5718,0,U,38978,999,4962,0,0,0
STAR ONE C3,2012-062A,2026-06-16T12:39:26.357760,1.00270938,.00021564,0.0151,315.3164,143.3654,280.9889,0,U,38991,999,4975,0,-.251E-5,0
EUTELSAT 21B,2012-062B,2026-06-16T13:07:06.191616,1.00270591,.0003129,0.0666,343.4115,91.6376,48.1523,0,U,38992,999,4982,0,.128E-5,0
ECHOSTAR 16,2012-065A,2026-06-16T08:10:38.633952,1.00270141,.00020693,0.0192,34.0681,49.1511,242.5510,0,U,39008,999,4963,0,-.283E-5,0
ZHONGXING-12,2012-067A,2026-06-16T15:08:33.349920,1.00271880,.00027565,0.0381,87.1368,349.6745,142.7178,0,U,39017,999,4950,0,-.209E-5,0
EUTELSAT 70B,2012-069A,2026-06-16T13:20:57.363072,1.00271569,.00039407,0.0645,14.3198,63.4017,97.8265,0,U,39020,999,4950,0,-.45E-6,0
YAMAL 402,2012-070A,2026-06-16T14:59:09.333312,1.00271107,.00036264,1.2642,84.1648,0.9409,99.4673,0,U,39022,999,4939,0,.83E-6,0
SKYNET 5D,2012-075A,2026-06-16T13:15:57.841920,1.00269999,.00034481,0.0669,348.9681,104.5428,63.0718,0,U,39034,999,4915,0,.98E-6,0
MEXSAT 3,2012-075B,2026-06-16T14:10:51.511008,1.00268426,.00011443,0.0207,66.7669,8.3819,287.6123,0,U,39035,999,704,0,-.27E-6,0
TDRS 11,2013-004A,2026-06-16T12:11:06.574272,1.00269249,.00054868,3.5197,31.2495,20.3019,221.5915,0,U,39070,999,4668,0,.75E-6,0
AMAZONAS 3,2013-006A,2026-06-16T12:43:30.953568,1.00272537,.00018399,0.0400,209.9988,281.1290,263.5487,0,U,39078,999,4490,0,-.284E-5,0
AZERSPACE 1,2013-006B,2026-06-16T13:13:58.032768,1.00269651,.00012099,0.0163,12.8263,102.3268,34.1392,0,U,39079,999,4880,0,.132E-5,0
SBIRS GEO-2 (USA 241),2013-011A,2026-06-16T12:46:38.154720,1.00271508,.00021463,4.4880,52.5086,25.8111,328.3373,0,U,39120,999,4852,0,-.291E-5,0
EUTELSAT 117 WEST A,2013-012A,2026-06-16T14:10:14.071296,1.00271087,.0002637,0.0147,11.0422,73.9066,275.6588,0,U,39122,999,4842,0,-.15E-6,0
ANIK G1,2013-014A,2026-06-16T14:12:58.807584,1.00270711,.00014907,0.0172,13.2471,64.2325,293.3061,0,U,39127,999,4824,0,-.76E-6,0
ZHONGXING-11,2013-020A,2026-06-16T10:03:28.137024,1.00269394,.00019789,0.0552,63.7791,14.4352,75.2478,0,U,39157,999,4789,0,-.291E-5,0
EUTELSAT 7B,2013-022A,2026-06-16T02:46:53.505120,1.00273135,.00047267,0.0651,347.8161,47.4091,277.8986,0,U,39163,999,4793,0,.48E-6,0
WGS F5 (USA 243),2013-024A,2026-06-16T07:52:45.780960,1.00270693,.00003184,0.0162,329.4365,320.0563,40.7855,0,U,39168,999,4716,0,-.285E-5,0
SES-6,2013-026A,2026-06-16T12:48:45.451296,1.00269469,.00024836,0.0194,14.6129,86.3512,315.5127,0,U,39172,999,4771,0,-.263E-5,0
IRNSS-1A,2013-034A,2026-06-09T14:20:49.169184,1.00272948,.00174117,35.7049,63.9797,184.2474,279.8453,0,U,39199,999,4729,0,.7E-6,0
MUOS-2,2013-036A,2026-06-16T12:07:17.684256,1.00273074,.00509843,4.9938,45.5307,177.5124,35.5103,0,U,39206,999,4718,0,-.17E-6,0
ALPHASAT,2013-038A,2026-06-16T02:52:00.515424,1.00275002,.00017758,2.9985,1.3330,89.1434,241.7746,0,U,39215,999,4400,0,.132E-5,0
INSAT-3D,2013-038B,2026-06-16T15:27:12.254976,1.00269377,.00005616,1.9252,82.5469,310.9032,232.7718,0,U,39216,999,4707,0,-.342E-5,0
WGS F6 (USA 244),2013-041A,2026-06-16T14:04:59.572704,1.00271243,.00001753,0.0171,3.6031,306.5626,30.7405,0,U,39222,999,4605,0,.87E-6,0
ES'HAIL 1,2013-044A,2026-06-16T13:08:06.096192,1.00273367,.00021032,0.0482,344.7499,96.3350,46.2480,0,U,39233,999,4662,0,.142E-5,0
GSAT-7,2013-044B,2026-06-16T13:21:57.266784,1.00270365,.00031647,0.0827,94.3413,190.2950,254.6426,0,U,39234,999,4525,0,-.78E-6,0
